[{"OBJECT_NAME":"GEOSCAN 5 (RS92S5)","OBJECT_ID":"2025-155R","EPOCH":"2026-03-09T22:01:07.273920","MEAN_MOTION":15.30265233,"ECCENTRICITY":0.00070849,"INCLINATION":97.4462,"RA_OF_ASC_NODE":37.7456,"ARG_OF_PERICENTER":154.5846,"MEAN_ANOMALY":205.5745,"EPHEMERIS_TYPE":0,"CLASSIFICATION_TYPE":"U","NORAD_CAT_ID":64891,"ELEMENT_SET_NO":999,"REV_AT_EPOCH":6562,"BSTAR":0.00068639307,"MEAN_MOTION_DOT":0.00020065,"MEAN_MOTION_DDOT":0},{"OBJECT_NAME":"STARLINK-35008","OBJECT_ID":"2025-192E","EPOCH":"2026-03-09T22:00:01.999584","MEAN_MOTION":15.30164779,"ECCENTRICITY":0.00010153,"INCLINATION":53.1577,"RA_OF_ASC_NODE":231.3051,"ARG_OF_PERICENTER":78.1444,"MEAN_ANOMALY":110.8383,"EPHEMERIS_TYPE":0,"CLASSIFICATION_TYPE":"U","NORAD_CAT_ID":65408,"ELEMENT_SET_NO":999,"REV_AT_EPOCH":578,"BSTAR":0.0027990517,"MEAN_MOTION_DOT":0.00083384,"MEAN_MOTION_DDOT":0}]
